[{"OBJECT_NAME":"ONEWEB-0161","OBJECT_ID":"2021-025M","EPOCH":"2026-03-03T03:06:48.985632","MEAN_MOTION":13.13470062,"ECCENTRICITY":0.0001937,"INCLINATION":87.9038,"RA_OF_ASC_NODE":341.3146,"ARG_OF_PERICENTER":76.4828,"MEAN_ANOMALY":283.6517,"EPHEMERIS_TYPE":0,"CLASSIFICATION_TYPE":"U","NORAD_CAT_ID":48053,"ELEMENT_SET_NO":999,"REV_AT_EPOCH":23958,"BSTAR":0.00056036,"MEAN_MOTION_DOT":2.17e-6,"MEAN_MOTION_DDOT":0},{"OBJECT_NAME":"ONEWEB-0158","OBJECT_ID":"2021-025N","EPOCH":"2026-03-03T03:58:00.408000","MEAN_MOTION":13.13468996,"ECCENTRICITY":0.0001511,"INCLINATION":87.9052,"RA_OF_ASC_NODE":341.2977,"ARG_OF_PERICENTER":86.6756,"MEAN_ANOMALY":273.4546,"EPHEMERIS_TYPE":0,"CLASSIFICATION_TYPE":"U","NORAD_CAT_ID":48054,"ELEMENT_SET_NO":999,"REV_AT_EPOCH":23971,"BSTAR":2.2925e-5,"MEAN_MOTION_DOT":2.1e-7,"MEAN_MOTION_DDOT":0},{"OBJECT_NAME":"ONEWEB-0157","OBJECT_ID":"2021-025P","EPOCH":"2026-03-02T19:26:05.334144","MEAN_MOTION":13.13468925,"ECCENTRICITY":0.00021928,"INCLINATION":87.9047,"RA_OF_ASC_NODE":341.3728,"ARG_OF_PERICENTER":78.7059,"MEAN_ANOMALY":281.4316,"EPHEMERIS_TYPE":0,"CLASSIFICATION_TYPE":"U","NORAD_CAT_ID":48055,"ELEMENT_SET_NO":999,"REV_AT_EPOCH":23960,"BSTAR":-0.00085102875,"MEAN_MOTION_DOT":-2.98e-6,"MEAN_MOTION_DDOT":0},{"OBJECT_NAME":"ONEWEB-0162","OBJECT_ID":"2021-025Q","EPOCH":"2026-03-03T04:00:14.524128","MEAN_MOTION":13.13470647,"ECCENTRICITY":0.0001779,"INCLINATION":87.9052,"RA_OF_ASC_NODE":341.3065,"ARG_OF_PERICENTER":73.3955,"MEAN_ANOMALY":286.737,"EPHEMERIS_TYPE":0,"CLASSIFICATION_TYPE":"U","NORAD_CAT_ID":48056,"ELEMENT_SET_NO":999,"REV_AT_EPOCH":23962,"BSTAR":-5.6802e-5,"MEAN_MOTION_DOT":-8.0e-8,"MEAN_MOTION_DDOT":0},{"OBJECT_NAME":"ONEWEB-0155","OBJECT_ID":"2021-025R","EPOCH":"2026-03-03T04:10:11.356320","MEAN_MOTION":13.13468341,"ECCENTRICITY":0.0001907,"INCLINATION":87.9041,"RA_OF_ASC_NODE":341.3046,"ARG_OF_PERICENTER":81.9225,"MEAN_ANOMALY":278.2121,"EPHEMERIS_TYPE":0,"CLASSIFICATION_TYPE":"U","NORAD_CAT_ID":48057,"ELEMENT_SET_NO":999,"REV_AT_EPOCH":23976,"BSTAR":-0.00045083,"MEAN_MOTION_DOT":-1.52e-6,"MEAN_MOTION_DDOT":0},{"OBJECT_NAME":"ONEWEB-0149","OBJECT_ID":"2021-025S","EPOCH":"2026-03-02T19:33:24.031872","MEAN_MOTION":13.13469591,"ECCENTRICITY":0.00017989,"INCLINATION":87.9047,"RA_OF_ASC_NODE":341.3722,"ARG_OF_PERICENTER":71.6071,"MEAN_ANOMALY":288.5253,"EPHEMERIS_TYPE":0,"CLASSIFICATION_TYPE":"U","NORAD_CAT_ID":48058,"ELEMENT_SET_NO":999,"REV_AT_EPOCH":23952,"BSTAR":-0.00040550991,"MEAN_MOTION_DOT":-1.35e-6,"MEAN_MOTION_DDOT":0},{"OBJECT_NAME":"ONEWEB-0148","OBJECT_ID":"2021-025T","EPOCH":"2026-03-03T03:48:15.535296","MEAN_MOTION":13.13470208,"ECCENTRICITY":0.0001993,"INCLINATION":87.9044,"RA_OF_ASC_NODE":341.3188,"ARG_OF_PERICENTER":63.0515,"MEAN_ANOMALY":297.0817,"EPHEMERIS_TYPE":0,"CLASSIFICATION_TYPE":"U","NORAD_CAT_ID":48059,"ELEMENT_SET_NO":999,"REV_AT_EPOCH":23969,"BSTAR":0.00053364,"MEAN_MOTION_DOT":2.08e-6,"MEAN_MOTION_DDOT":0},{"OBJECT_NAME":"ONEWEB-0160","OBJECT_ID":"2021-025U","EPOCH":"2026-03-02T19:04:08.560992","MEAN_MOTION":13.13469323,"ECCENTRICITY":0.00010412,"INCLINATION":87.9041,"RA_OF_ASC_NODE":341.3878,"ARG_OF_PERICENTER":87.5862,"MEAN_ANOMALY":272.5387,"EPHEMERIS_TYPE":0,"CLASSIFICATION_TYPE":"U","NORAD_CAT_ID":48060,"ELEMENT_SET_NO":999,"REV_AT_EPOCH":23959,"BSTAR":-0.00076275679,"MEAN_MOTION_DOT":-2.66e-6,"MEAN_MOTION_DDOT":0},{"OBJECT_NAME":"ONEWEB-0163","OBJECT_ID":"2021-025V","EPOCH":"2026-03-03T03:50:41.767296","MEAN_MOTION":13.1346872,"ECCENTRICITY":0.0002058,"INCLINATION":87.9046,"RA_OF_ASC_NODE":341.3072,"ARG_OF_PERICENTER":79.0401,"MEAN_ANOMALY":281.096,"EPHEMERIS_TYPE":0,"CLASSIFICATION_TYPE":"U","NORAD_CAT_ID":48061,"ELEMENT_SET_NO":999,"REV_AT_EPOCH":23976,"BSTAR":0.00044369,"MEAN_MOTION_DOT":1.75e-6,"MEAN_MOTION_DDOT":0},{"OBJECT_NAME":"ONEWEB-0159","OBJECT_ID":"2021-025W","EPOCH":"2026-03-03T03:38:29.885856","MEAN_MOTION":13.13468278,"ECCENTRICITY":0.0001981,"INCLINATION":87.9052,"RA_OF_ASC_NODE":341.2952,"ARG_OF_PERICENTER":76.1756,"MEAN_ANOMALY":283.9593,"EPHEMERIS_TYPE":0,"CLASSIFICATION_TYPE":"U","NORAD_CAT_ID":48062,"ELEMENT_SET_NO":999,"REV_AT_EPOCH":23968,"BSTAR":0.0008234,"MEAN_MOTION_DOT":3.13e-6,"MEAN_MOTION_DDOT":0},{"OBJECT_NAME":"ONEWEB-0164","OBJECT_ID":"2021-025X","EPOCH":"2026-03-03T03:11:41.209440","MEAN_MOTION":13.1346958,"ECCENTRICITY":0.0001678,"INCLINATION":87.905,"RA_OF_ASC_NODE":341.3052,"ARG_OF_PERICENTER":80.024,"MEAN_ANOMALY":280.1078,"EPHEMERIS_TYPE":0,"CLASSIFICATION_TYPE":"U","NORAD_CAT_ID":48063,"ELEMENT_SET_NO":999,"REV_AT_EPOCH":23966,"BSTAR":0.00055749,"MEAN_MOTION_DOT":2.16e-6,"MEAN_MOTION_DDOT":0},{"OBJECT_NAME":"ONEWEB-0167","OBJECT_ID":"2021-025Y","EPOCH":"2026-03-03T03:51:56.257056","MEAN_MOTION":13.13466535,"ECCENTRICITY":0.0002288,"INCLINATION":87.9042,"RA_OF_ASC_NODE":341.3196,"ARG_OF_PERICENTER":93.7737,"MEAN_ANOMALY":266.3654,"EPHEMERIS_TYPE":0,"CLASSIFICATION_TYPE":"U","NORAD_CAT_ID":48064,"ELEMENT_SET_NO":999,"REV_AT_EPOCH":23965,"BSTAR":0.0014974,"MEAN_MOTION_DOT":5.6e-6,"MEAN_MOTION_DDOT":0},{"OBJECT_NAME":"ONEWEB-0166","OBJECT_ID":"2021-025Z","EPOCH":"2026-03-02T19:16:19.975008","MEAN_MOTION":13.13469922,"ECCENTRICITY":0.0001866,"INCLINATION":87.9047,"RA_OF_ASC_NODE":341.3525,"ARG_OF_PERICENTER":72.6855,"MEAN_ANOMALY":287.4478,"EPHEMERIS_TYPE":0,"CLASSIFICATION_TYPE":"U","NORAD_CAT_ID":48065,"ELEMENT_SET_NO":999,"REV_AT_EPOCH":23968,"BSTAR":-0.0010710955,"MEAN_MOTION_DOT":-3.78e-6,"MEAN_MOTION_DDOT":0},{"OBJECT_NAME":"ONEWEB-0151","OBJECT_ID":"2021-025AA","EPOCH":"2026-03-02T19:18:46.568160","MEAN_MOTION":13.13468925,"ECCENTRICITY":0.00018083,"INCLINATION":87.9042,"RA_OF_ASC_NODE":341.3785,"ARG_OF_PERICENTER":82.6242,"MEAN_ANOMALY":277.5092,"EPHEMERIS_TYPE":0,"CLASSIFICATION_TYPE":"U","NORAD_CAT_ID":48066,"ELEMENT_SET_NO":999,"REV_AT_EPOCH":23962,"BSTAR":-0.00086639855,"MEAN_MOTION_DOT":-3.04e-6,"MEAN_MOTION_DDOT":0},{"OBJECT_NAME":"ONEWEB-0170","OBJECT_ID":"2021-025AB","EPOCH":"2026-03-02T19:30:57.653856","MEAN_MOTION":13.13469679,"ECCENTRICITY":0.00015576,"INCLINATION":87.9042,"RA_OF_ASC_NODE":341.3785,"ARG_OF_PERICENTER":93.2788,"MEAN_ANOMALY":266.8519,"EPHEMERIS_TYPE":0,"CLASSIFICATION_TYPE":"U","NORAD_CAT_ID":48067,"ELEMENT_SET_NO":999,"REV_AT_EPOCH":23958,"BSTAR":-0.00053403181,"MEAN_MOTION_DOT":-1.82e-6,"MEAN_MOTION_DDOT":0},{"OBJECT_NAME":"ONEWEB-0168","OBJECT_ID":"2021-025AC","EPOCH":"2026-03-03T04:17:29.972832","MEAN_MOTION":13.13469703,"ECCENTRICITY":0.0001935,"INCLINATION":87.9051,"RA_OF_ASC_NODE":341.2968,"ARG_OF_PERICENTER":77.135,"MEAN_ANOMALY":282.9996,"EPHEMERIS_TYPE":0,"CLASSIFICATION_TYPE":"U","NORAD_CAT_ID":48068,"ELEMENT_SET_NO":999,"REV_AT_EPOCH":23964,"BSTAR":-0.00066219,"MEAN_MOTION_DOT":-2.29e-6,"MEAN_MOTION_DDOT":0},{"OBJECT_NAME":"ONEWEB-0173","OBJECT_ID":"2021-025AD","EPOCH":"2026-03-03T04:05:19.236192","MEAN_MOTION":13.13469054,"ECCENTRICITY":0.0002113,"INCLINATION":87.9049,"RA_OF_ASC_NODE":341.3055,"ARG_OF_PERICENTER":82.7336,"MEAN_ANOMALY":277.4034,"EPHEMERIS_TYPE":0,"CLASSIFICATION_TYPE":"U","NORAD_CAT_ID":48069,"ELEMENT_SET_NO":999,"REV_AT_EPOCH":23988,"BSTAR":-0.00030232,"MEAN_MOTION_DOT":-9.8e-7,"MEAN_MOTION_DDOT":0}]
