ONEWEB-0161             
1 48053U 21025M   26062.12973363  .00000217  00000+0  56036-3 0  9992
2 48053  87.9038 341.3146 0001937  76.4828 283.6517 13.13470062239580
ONEWEB-0158             
1 48054U 21025N   26062.16528250  .00000021  00000+0  22925-4 0  9992
2 48054  87.9052 341.2977 0001511  86.6756 273.4546 13.13468996239716
ONEWEB-0157             
1 48055U 21025P   26061.80978396 -.00000298  00000+0 -85103-3 0  9997
2 48055  87.9047 341.3728 0002192  78.7059 281.4316 13.13468925239604
ONEWEB-0162             
1 48056U 21025Q   26062.16683477 -.00000008  00000+0 -56802-4 0  9995
2 48056  87.9052 341.3065 0001779  73.3955 286.7370 13.13470647239625
ONEWEB-0155             
1 48057U 21025R   26062.17374255 -.00000152  00000+0 -45083-3 0  9996
2 48057  87.9041 341.3046 0001907  81.9225 278.2121 13.13468341239764
ONEWEB-0149             
1 48058U 21025S   26061.81486148 -.00000135  00000+0 -40551-3 0  9998
2 48058  87.9047 341.3722 0001798  71.6071 288.5253 13.13469591239527
ONEWEB-0148             
1 48059U 21025T   26062.15851314  .00000208  00000+0  53364-3 0  9993
2 48059  87.9044 341.3188 0001993  63.0515 297.0817 13.13470208239692
ONEWEB-0160             
1 48060U 21025U   26061.79454353 -.00000266  00000+0 -76276-3 0  9999
2 48060  87.9041 341.3878 0001041  87.5862 272.5387 13.13469323239592
ONEWEB-0163             
1 48061U 21025V   26062.16020564  .00000175  00000+0  44369-3 0  9990
2 48061  87.9046 341.3072 0002058  79.0401 281.0960 13.13468720239769
ONEWEB-0159             
1 48062U 21025W   26062.15173479  .00000313  00000+0  82340-3 0  9999
2 48062  87.9052 341.2952 0001981  76.1756 283.9593 13.13468278239680
ONEWEB-0164             
1 48063U 21025X   26062.13311585  .00000216  00000+0  55749-3 0  9995
2 48063  87.9050 341.3052 0001678  80.0240 280.1078 13.13469580239668
ONEWEB-0167             
1 48064U 21025Y   26062.16106779  .00000560  00000+0  14974-2 0  9992
2 48064  87.9042 341.3196 0002288  93.7737 266.3654 13.13466535239651
ONEWEB-0166             
1 48065U 21025Z   26061.80300897 -.00000378  00000+0 -10711-2 0  9994
2 48065  87.9047 341.3525 0001866  72.6855 287.4478 13.13469922239685
ONEWEB-0151             
1 48066U 21025AA  26061.80470565 -.00000304  00000+0 -86640-3 0  9999
2 48066  87.9042 341.3785 0001808  82.6242 277.5092 13.13468925239624
ONEWEB-0170             
1 48067U 21025AB  26061.81316729 -.00000182  00000+0 -53403-3 0  9997
2 48067  87.9042 341.3785 0001557  93.2788 266.8519 13.13469679239586
ONEWEB-0168             
1 48068U 21025AC  26062.17881913 -.00000229  00000+0 -66219-3 0  9991
2 48068  87.9051 341.2968 0001935  77.1350 282.9996 13.13469703239648
ONEWEB-0173             
1 48069U 21025AD  26062.17036153 -.00000098  00000+0 -30232-3 0  9990
2 48069  87.9049 341.3055 0002113  82.7336 277.4034 13.13469054239886
